start=new Date('2023-06-28T00:00:00.000Z').valueOf();
sats=[{"ELEMENT_SET_NO":"999","PERIOD":"95.438","EPHEMERIS_TYPE":"0","REV_AT_EPOCH":"3728","OBJECT_ID":"2022-141AV","SITE":"AFWTR","EPOCH":"2023-06-27T01:26:28.593888","MEAN_MOTION_DDOT":"0.0000000000000","CENTER_NAME":"EARTH","FILE":"3944048","REF_FRAME":"TEME","INCLINATION":"53.2168","PERIAPSIS":"538.973","CLASSIFICATION_TYPE":"U","RA_OF_ASC_NODE":"103.0361","DECAY_DATE":null,"LAUNCH_DATE":"2022-10-28","OBJECT_NAME":"STARLINK-5250","ARG_OF_PERICENTER":"105.3877","MEAN_ELEMENT_THEORY":"SGP4","BSTAR":"0.00001038000000","OBJECT_TYPE":"PAYLOAD","RCS_SIZE":"LARGE","MEAN_ANOMALY":"254.7238","TIME_SYSTEM":"UTC","TLE_LINE1":"1 54200U 22141AV  23178.06005317 -.00000123  00000-0  10380-4 0  9997","COUNTRY_CODE":"US","ECCENTRICITY":"0.00011160","MEAN_MOTION":"15.08840271","TLE_LINE2":"2 54200  53.2168 103.0361 0001116 105.3877 254.7238 15.08840271 37289","SEMIMAJOR_AXIS":"6917.880","NORAD_CAT_ID":"54200","GP_ID":"234583515","APOAPSIS":"540.517","MEAN_MOTION_DOT":"-0.00000123"},{"TLE_LINE1":"1 54201U 22141AW  23178.18884931 -.00000610  00000-0 -20241-4 0  9997","TIME_SYSTEM":"UTC","COUNTRY_CODE":"US","OBJECT_TYPE":"PAYLOAD","BSTAR":"-0.00002024100000","MEAN_ANOMALY":"264.3722","RCS_SIZE":"LARGE","OBJECT_NAME":"STARLINK-5199","ARG_OF_PERICENTER":"95.7391","MEAN_ELEMENT_THEORY":"SGP4","LAUNCH_DATE":"2022-10-28","MEAN_MOTION_DOT":"-0.00000610","APOAPSIS":"540.489","TLE_LINE2":"2 54201  53.2165 102.4177 0001055  95.7391 264.3722 15.08835549 37300","GP_ID":"234583535","NORAD_CAT_ID":"54201","SEMIMAJOR_AXIS":"6917.894","MEAN_MOTION":"15.08835549","ECCENTRICITY":"0.00010550","MEAN_MOTION_DDOT":"0.0000000000000","EPOCH":"2023-06-27T04:31:56.580384","CENTER_NAME":"EARTH","REV_AT_EPOCH":"3730","EPHEMERIS_TYPE":"0","SITE":"AFWTR","OBJECT_ID":"2022-141AW","ELEMENT_SET_NO":"999","PERIOD":"95.438","RA_OF_ASC_NODE":"102.4177","DECAY_DATE":null,"INCLINATION":"53.2165","PERIAPSIS":"539.029","CLASSIFICATION_TYPE":"U","REF_FRAME":"TEME","FILE":"3944049"},{"REF_FRAME":"TEME","FILE":"3943543","DECAY_DATE":null,"RA_OF_ASC_NODE":"105.3690","CLASSIFICATION_TYPE":"U","INCLINATION":"53.2161","PERIAPSIS":"539.004","PERIOD":"95.438","ELEMENT_SET_NO":"999","CENTER_NAME":"EARTH","MEAN_MOTION_DDOT":"0.0000000000000","EPOCH":"2023-06-26T12:32:46.685184","SITE":"AFWTR","OBJECT_ID":"2022-141AX","REV_AT_EPOCH":"3720","EPHEMERIS_TYPE":"0","NORAD_CAT_ID":"54202","GP_ID":"234571492","SEMIMAJOR_AXIS":"6917.886","TLE_LINE2":"2 54202  53.2161 105.3690 0001080  86.6409 273.4707 15.08838283 37207","MEAN_MOTION":"15.08838283","ECCENTRICITY":"0.00010800","MEAN_MOTION_DOT":"0.00000132","APOAPSIS":"540.498","MEAN_ELEMENT_THEORY":"SGP4","ARG_OF_PERICENTER":"86.6409","OBJECT_NAME":"STARLINK-5205","LAUNCH_DATE":"2022-10-28","COUNTRY_CODE":"US","TLE_LINE1":"1 54202U 22141AX  23177.52276256  .00000132  00000-0  26402-4 0  9992","TIME_SYSTEM":"UTC","RCS_SIZE":"LARGE","MEAN_ANOMALY":"273.4707","OBJECT_TYPE":"PAYLOAD","BSTAR":"0.00002640200000"},{"TIME_SYSTEM":"UTC","TLE_LINE1":"1 54203U 22141AY  23176.54021489 -.00000773  00000-0 -30491-4 0  9996","COUNTRY_CODE":"US","BSTAR":"-0.00003049100000","OBJECT_TYPE":"PAYLOAD","RCS_SIZE":"LARGE","MEAN_ANOMALY":"274.8342","OBJECT_NAME":"STARLINK-5247","ARG_OF_PERICENTER":"85.2808","MEAN_ELEMENT_THEORY":"SGP4","LAUNCH_DATE":"2022-10-28","MEAN_MOTION_DOT":"-0.00000773","APOAPSIS":"540.687","TLE_LINE2":"2 54203  53.2166 109.9001 0001379  85.2808 274.8342 15.08844012 37058","SEMIMAJOR_AXIS":"6917.868","GP_ID":"234548786","NORAD_CAT_ID":"54203","ECCENTRICITY":"0.00013790","MEAN_MOTION":"15.08844012","EPOCH":"2023-06-25T12:57:54.566496","MEAN_MOTION_DDOT":"0.0000000000000","CENTER_NAME":"EARTH","EPHEMERIS_TYPE":"0","REV_AT_EPOCH":"3705","OBJECT_ID":"2022-141AY","SITE":"AFWTR","ELEMENT_SET_NO":"999","PERIOD":"95.437","RA_OF_ASC_NODE":"109.9001","DECAY_DATE":null,"PERIAPSIS":"538.779","INCLINATION":"53.2166","CLASSIFICATION_TYPE":"U","FILE":"3942624","REF_FRAME":"TEME"},{"EPOCH":"2023-06-26T12:16:51.481344","MEAN_MOTION_DDOT":"0.0000000000000","CENTER_NAME":"EARTH","EPHEMERIS_TYPE":"0","REV_AT_EPOCH":"3720","OBJECT_ID":"2022-141AZ","SITE":"AFWTR","PERIOD":"95.438","ELEMENT_SET_NO":"999","RA_OF_ASC_NODE":"105.3042","DECAY_DATE":null,"INCLINATION":"53.2169","PERIAPSIS":"539.014","CLASSIFICATION_TYPE":"U","FILE":"3943543","REF_FRAME":"TEME","TIME_SYSTEM":"UTC","TLE_LINE1":"1 54204U 22141AZ  23177.51170696  .00000234  00000-0  32797-4 0  9991","COUNTRY_CODE":"US","BSTAR":"0.00003279700000","OBJECT_TYPE":"PAYLOAD","MEAN_ANOMALY":"262.1691","RCS_SIZE":"LARGE","OBJECT_NAME":"STARLINK-5241","ARG_OF_PERICENTER":"97.9422","MEAN_ELEMENT_THEORY":"SGP4","LAUNCH_DATE":"2022-10-28","MEAN_MOTION_DOT":"0.00000234","APOAPSIS":"540.487","TLE_LINE2":"2 54204  53.2169 105.3042 0001065  97.9422 262.1691 15.08838346 37208","SEMIMAJOR_AXIS":"6917.885","NORAD_CAT_ID":"54204","GP_ID":"234571503","ECCENTRICITY":"0.00010650","MEAN_MOTION":"15.08838346"},{"APOAPSIS":"540.551","MEAN_MOTION_DOT":"-0.00000747","ECCENTRICITY":"0.00011440","MEAN_MOTION":"15.08835329","SEMIMAJOR_AXIS":"6917.895","GP_ID":"234570993","NORAD_CAT_ID":"54205","TLE_LINE2":"2 54205  53.2155 105.3470 0001144  80.2801 279.8321 15.08835329 37206","MEAN_ANOMALY":"279.8321","RCS_SIZE":"LARGE","BSTAR":"-0.00002883500000","OBJECT_TYPE":"PAYLOAD","COUNTRY_CODE":"US","TIME_SYSTEM":"UTC","TLE_LINE1":"1 54205U 22141BA  23177.51907707 -.00000747  00000-0 -28835-4 0  9992","LAUNCH_DATE":"2022-10-28","MEAN_ELEMENT_THEORY":"SGP4","ARG_OF_PERICENTER":"80.2801","OBJECT_NAME":"STARLINK-5249","CLASSIFICATION_TYPE":"U","INCLINATION":"53.2155","PERIAPSIS":"538.968","DECAY_DATE":null,"RA_OF_ASC_NODE":"105.3470","FILE":"3943543","REF_FRAME":"TEME","OBJECT_ID":"2022-141BA","SITE":"AFWTR","EPHEMERIS_TYPE":"0","REV_AT_EPOCH":"3720","CENTER_NAME":"EARTH","EPOCH":"2023-06-26T12:27:28.258848","MEAN_MOTION_DDOT":"0.0000000000000","ELEMENT_SET_NO":"999","PERIOD":"95.438"},{"COUNTRY_CODE":"US","TLE_LINE1":"1 54206U 22141BB  23178.39263881 -.00000891  00000-0 -37901-4 0  9992","TIME_SYSTEM":"UTC","MEAN_ANOMALY":"270.7659","RCS_SIZE":"LARGE","OBJECT_TYPE":"PAYLOAD","BSTAR":"-0.00003790100000","MEAN_ELEMENT_THEORY":"SGP4","ARG_OF_PERICENTER":"89.3424","OBJECT_NAME":"STARLINK-5264","LAUNCH_DATE":"2022-10-28","MEAN_MOTION_DOT":"-0.00000891","APOAPSIS":"540.292","GP_ID":"234582844","NORAD_CAT_ID":"54206","SEMIMAJOR_AXIS":"6917.877","TLE_LINE2":"2 54206  53.2194  66.6140 0000795  89.3424 270.7659 15.08841034 37827","MEAN_MOTION":"15.08841034","ECCENTRICITY":"0.00007950","CENTER_NAME":"EARTH","MEAN_MOTION_DDOT":"0.0000000000000","EPOCH":"2023-06-27T09:25:23.993184","SITE":"AFWTR","OBJECT_ID":"2022-141BB","REV_AT_EPOCH":"3782","EPHEMERIS_TYPE":"0","PERIOD":"95.437","ELEMENT_SET_NO":"999","DECAY_DATE":null,"RA_OF_ASC_NODE":"66.6140","CLASSIFICATION_TYPE":"U","PERIAPSIS":"539.192","INCLINATION":"53.2194","REF_FRAME":"TEME","FILE":"3944030"},{"CENTER_NAME":"EARTH","MEAN_MOTION_DDOT":"0.0000000000000","EPOCH":"2023-06-27T02:40:38.395200","SITE":"AFWTR","OBJECT_ID":"2022-141BC","REV_AT_EPOCH":"3729","EPHEMERIS_TYPE":"0","PERIOD":"95.438","ELEMENT_SET_NO":"999","DECAY_DATE":null,"RA_OF_ASC_NODE":"102.6513","CLASSIFICATION_TYPE":"U","INCLINATION":"53.2165","PERIAPSIS":"539.183","REF_FRAME":"TEME","FILE":"3944030","COUNTRY_CODE":"US","TLE_LINE1":"1 54207U 22141BC  23178.11155550  .00000516  00000-0  50495-4 0  9991","TIME_SYSTEM":"UTC","RCS_SIZE":"LARGE","MEAN_ANOMALY":"273.7644","OBJECT_TYPE":"PAYLOAD","BSTAR":"0.00005049500000","MEAN_ELEMENT_THEORY":"SGP4","ARG_OF_PERICENTER":"86.3443","OBJECT_NAME":"STARLINK-5262","LAUNCH_DATE":"2022-10-28","MEAN_MOTION_DOT":"0.00000516","APOAPSIS":"540.341","NORAD_CAT_ID":"54207","GP_ID":"234582653","SEMIMAJOR_AXIS":"6917.897","TLE_LINE2":"2 54207  53.2165 102.6513 0000837  86.3443 273.7644 15.08834700 37296","MEAN_MOTION":"15.08834700","ECCENTRICITY":"0.00008370"},{"TLE_LINE2":"2 54208  53.2178  76.7364 0001334  97.1329 262.9814 15.08836632 37680","GP_ID":"234591202","NORAD_CAT_ID":"54208","SEMIMAJOR_AXIS":"6917.891","MEAN_MOTION":"15.08836632","ECCENTRICITY":"0.00013340","MEAN_MOTION_DOT":"0.00000440","APOAPSIS":"540.679","ARG_OF_PERICENTER":"97.1329","OBJECT_NAME":"STARLINK-5255","MEAN_ELEMENT_THEORY":"SGP4","LAUNCH_DATE":"2022-10-28","TLE_LINE1":"1 54208U 22141BD  23178.41382741  .00000440  00000-0  45739-4 0  9990","TIME_SYSTEM":"UTC","COUNTRY_CODE":"US","OBJECT_TYPE":"PAYLOAD","BSTAR":"0.00004573900000","MEAN_ANOMALY":"262.9814","RCS_SIZE":"LARGE","REF_FRAME":"TEME","FILE":"3944380","RA_OF_ASC_NODE":"76.7364","DECAY_DATE":null,"INCLINATION":"53.2178","PERIAPSIS":"538.833","CLASSIFICATION_TYPE":"U","ELEMENT_SET_NO":"999","PERIOD":"95.438","MEAN_MOTION_DDOT":"0.0000000000000","EPOCH":"2023-06-27T09:55:54.688224","CENTER_NAME":"EARTH","REV_AT_EPOCH":"3768","EPHEMERIS_TYPE":"0","SITE":"AFWTR","OBJECT_ID":"2022-141BD"},{"ARG_OF_PERICENTER":"88.6576","OBJECT_NAME":"STARLINK-5259","MEAN_ELEMENT_THEORY":"SGP4","LAUNCH_DATE":"2022-10-28","TIME_SYSTEM":"UTC","TLE_LINE1":"1 54209U 22141BE  23178.11615575 -.00000872  00000-0 -36721-4 0  9994","COUNTRY_CODE":"US","BSTAR":"-0.00003672100000","OBJECT_TYPE":"PAYLOAD","RCS_SIZE":"LARGE","MEAN_ANOMALY":"271.4545","TLE_LINE2":"2 54209  53.2178  92.6834 0001125  88.6576 271.4545 15.08845454 37438","SEMIMAJOR_AXIS":"6917.864","GP_ID":"234582651","NORAD_CAT_ID":"54209","ECCENTRICITY":"0.00011250","MEAN_MOTION":"15.08845454","MEAN_MOTION_DOT":"-0.00000872","APOAPSIS":"540.507","ELEMENT_SET_NO":"999","PERIOD":"95.437","EPOCH":"2023-06-27T02:47:15.856800","MEAN_MOTION_DDOT":"0.0000000000000","CENTER_NAME":"EARTH","EPHEMERIS_TYPE":"0","REV_AT_EPOCH":"3743","OBJECT_ID":"2022-141BE","SITE":"AFWTR","FILE":"3944030","REF_FRAME":"TEME","RA_OF_ASC_NODE":"92.6834","DECAY_DATE":null,"INCLINATION":"53.2178","PERIAPSIS":"538.950","CLASSIFICATION_TYPE":"U"}];
